CZ-2C R/B               
1 28222U 04012C   17180.90809803  .00000610  00000-0  41291-4 0  9995
2 28222  97.5258 137.1598 0049372 140.6214 284.9135 15.09249569722497
SL-16 R/B               
1 28353U 04021B   17180.73884698  .00000116  00000-0  85989-4 0  9999
2 28353  71.0022  52.1440 0005476 203.2104 156.8772 14.14201888673925
CZ-2C R/B               
1 28480U 04046B   17180.88506480  .00000008  00000-0  18435-4 0  9995
2 28480  98.1964 276.2583 0141958 186.5847 283.4422 14.25641532656028
ARIANE 5 R/B            
1 28499U 04049H   17180.84047829  .00000042  00000-0  12642-4 0  9993
2 28499  98.0785 263.9326 0092647 173.9319 299.0152 14.79821042675827
CZ-2D R/B               
1 28738U 05024B   17180.64895101  .00000428  00000-0  29298-4 0  9998
2 28738  97.4959 217.2850 0011231 328.9099  31.1466 15.11158122657697
SUZAKU (ASTRO-EII)      
1 28773U 05025A   17180.50665946  .00000648  00000-0  28625-4 0  9992
2 28773  31.3817 216.5423 0004673 110.7915 249.3233 15.15839209659244
ALOS (DAICHI)           
1 28931U 06002A   17180.93333953  .00000064  00000-0  21219-4 0  9995
2 28931  97.8427 207.6512 0000502  75.1436 284.9823 14.62364244609320
H-2A R/B                
1 28932U 06002B   17180.96738508  .00000070  00000-0  13058-4 0  9993
2 28932  98.2066 104.3710 0088553 269.7216 144.2034 14.91382890619600
AKARI (ASTRO-F)         
1 28939U 06005A   17180.87261552  .00002647  00000-0  82873-4 0  9996
2 28939  98.2524  23.4165 0107586 141.8890 219.0020 15.28712676615036
RESURS-DK 1             
1 29228U 06021A   17180.89293770  .00000042  00000-0  10632-4 0  9996
2 29228  69.9361  65.7540 0006968 301.9671  58.0812 15.02165925610009
GENESIS 1               
1 29252U 06029A   17180.63520490  .00000317  00000-0  26336-4 0  9998
2 29252  64.5041 244.8567 0016565 320.9306 157.2571 15.16792352603631
CZ-4B R/B               
1 29507U 06046C   17180.94457620 -.00000121  00000-0 -44774-5 0  9990
2 29507  97.7837 188.5129 0045094 195.3026 164.6836 15.00065477582901
CZ-2C R/B               
1 31114U 07010B   17180.74731188  .00000007  00000-0  22172-4 0  9999
2 31114  98.3975  82.5772 0059729 178.0611 182.0808 14.19244973529287
COSMO-SKYMED 1          
1 31598U 07023A   17180.93297328 -.00001791  00000-0 -21849-3 0  9995
2 31598  97.8868   4.4512 0001389 100.5590 259.5824 14.82145718544336
GENESIS 2               
1 31789U 07028A   17180.73045737  .00000247  00000-0  23272-4 0  9991
2 31789  64.5050 282.5303 0028181 222.6776 137.2157 15.16071671550815
COSMOS 2428             
1 31792U 07029A   17180.95264905  .00000199  00000-0  13394-3 0  9999
2 31792  70.9175  25.3040 0011435 254.0743 105.9117 14.12279610515789
SL-16 R/B               
1 31793U 07029B   17180.53146507 -.00000176  00000-0 -66719-4 0  9998
2 31793  70.9762   3.2332 0002049 268.6628 152.0478 14.14386878516461
KORONAS-FOTON           
1 33504U 09003A   17180.91686020  .00000740  00000-0  37910-4 0  9991
2 33504  82.4420 220.3314 0021001  68.1535 292.1927 15.14839378463301
TIANGONG 1              
1 37820U 11053A   17180.78698316  .00021660  00000-0  11729-3 0  9993
2 37820  42.7583 122.7960 0018135 171.7447 269.2024 15.79383974329967
CZ-3B R/B               
1 38253U 12018D   17180.43665515  .00683436  57247-5  18762-3 0  9992
2 38253  54.8463 146.6635 1308247 294.6293  52.3972 13.35705328129922
H-2A R/B                
1 38341U 12025E   17180.85112939  .00000134  00000-0  23237-4 0  9993
2 38341  98.4338 258.5814 0057158 117.1536 243.5520 14.83581715276671
CUSAT 2 & FALCON 9 R/B  
1 39271U 13055G   17180.85523720  .00007509  00000-0  19239-3 0  9993
2 39271  80.9685 343.7290 0633079 164.7481 197.3819 14.37319340194442
ALOS-2                  
1 39766U 14029A   17180.89757000  .00000050  00000-0  13509-4 0  9997
2 39766  97.9211 278.0376 0001509  82.5549 277.5818 14.79473016167489
ASTRO-H (HITOMI)        
1 41337U 16012A   17180.91443161  .00000255  00000-0  13889-4 0  9999
2 41337  31.0069  38.1510 0012454 167.1399 192.9555 14.98314562 74830
TIANGONG-2              
1 41765U 16057A   17180.73974141  .00003396  00000-0  48959-4 0  9995
2 41765  42.7839 280.1413 0003793 313.7317 177.0934 15.57957456 44940
